[{"OBJECT_NAME":"STARLINK-5807","OBJECT_ID":"2023-028BC","EPOCH":"2025-10-14T05:02:45.627648","MEAN_MOTION":14.98332119,"ECCENTRICITY":0.00028543,"INCLINATION":69.9999,"RA_OF_ASC_NODE":213.8346,"ARG_OF_PERICENTER":270.5891,"MEAN_ANOMALY":89.4941,"EPHEMERIS_TYPE":0,"CLASSIFICATION_TYPE":"U","NORAD_CAT_ID":55791,"ELEMENT_SET_NO":999,"REV_AT_EPOCH":14508,"BSTAR":3.3793585e-5,"MEAN_MOTION_DOT":3.1e-6,"MEAN_MOTION_DDOT":0},{"OBJECT_NAME":"STARLINK-5856","OBJECT_ID":"2023-037A","EPOCH":"2025-10-14T06:52:36.223104","MEAN_MOTION":14.98338139,"ECCENTRICITY":0.00031519,"INCLINATION":69.9978,"RA_OF_ASC_NODE":313.7427,"ARG_OF_PERICENTER":273.834,"MEAN_ANOMALY":86.2459,"EPHEMERIS_TYPE":0,"CLASSIFICATION_TYPE":"U","NORAD_CAT_ID":55914,"ELEMENT_SET_NO":999,"REV_AT_EPOCH":14224,"BSTAR":0.00012105292,"MEAN_MOTION_DOT":1.352e-5,"MEAN_MOTION_DDOT":0},{"OBJECT_NAME":"STARLINK-5859","OBJECT_ID":"2023-037B","EPOCH":"2025-10-14T08:04:41.072736","MEAN_MOTION":14.98329155,"ECCENTRICITY":0.00029716,"INCLINATION":69.9983,"RA_OF_ASC_NODE":313.5151,"ARG_OF_PERICENTER":268.8226,"MEAN_ANOMALY":91.2593,"EPHEMERIS_TYPE":0,"CLASSIFICATION_TYPE":"U","NORAD_CAT_ID":55915,"ELEMENT_SET_NO":999,"REV_AT_EPOCH":14225,"BSTAR":7.497054e-6,"MEAN_MOTION_DOT":-4.0e-8,"MEAN_MOTION_DDOT":0},{"OBJECT_NAME":"STARLINK-5796","OBJECT_ID":"2023-037C","EPOCH":"2025-10-14T06:46:35.083200","MEAN_MOTION":14.98330154,"ECCENTRICITY":0.00030433,"INCLINATION":69.9978,"RA_OF_ASC_NODE":313.7275,"ARG_OF_PERICENTER":269.0506,"MEAN_ANOMALY":91.0304,"EPHEMERIS_TYPE":0,"CLASSIFICATION_TYPE":"U","NORAD_CAT_ID":55916,"ELEMENT_SET_NO":999,"REV_AT_EPOCH":14155,"BSTAR":9.5515925e-5,"MEAN_MOTION_DOT":1.047e-5,"MEAN_MOTION_DDOT":0},{"OBJECT_NAME":"STARLINK-5855","OBJECT_ID":"2023-037D","EPOCH":"2025-10-14T08:00:01.999872","MEAN_MOTION":15.82706897,"ECCENTRICITY":0.00037196,"INCLINATION":69.9658,"RA_OF_ASC_NODE":229.7475,"ARG_OF_PERICENTER":257.473,"MEAN_ANOMALY":57.1197,"EPHEMERIS_TYPE":0,"CLASSIFICATION_TYPE":"U","NORAD_CAT_ID":55917,"ELEMENT_SET_NO":999,"REV_AT_EPOCH":605,"BSTAR":0.00141203,"MEAN_MOTION_DOT":0.00308123,"MEAN_MOTION_DDOT":0},{"OBJECT_NAME":"STARLINK-5867","OBJECT_ID":"2023-037E","EPOCH":"2025-10-14T06:40:34.441824","MEAN_MOTION":14.98325309,"ECCENTRICITY":0.00033891,"INCLINATION":69.9981,"RA_OF_ASC_NODE":313.7129,"ARG_OF_PERICENTER":269.6061,"MEAN_ANOMALY":90.471,"EPHEMERIS_TYPE":0,"CLASSIFICATION_TYPE":"U","NORAD_CAT_ID":55918,"ELEMENT_SET_NO":999,"REV_AT_EPOCH":14155,"BSTAR":-7.67843e-7,"MEAN_MOTION_DOT":-1.02e-6,"MEAN_MOTION_DDOT":0},{"OBJECT_NAME":"STARLINK-5871","OBJECT_ID":"2023-037F","EPOCH":"2025-10-14T08:04:55.259616","MEAN_MOTION":14.98328643,"ECCENTRICITY":0.00032649,"INCLINATION":69.9983,"RA_OF_ASC_NODE":313.5149,"ARG_OF_PERICENTER":272.9908,"MEAN_ANOMALY":87.0877,"EPHEMERIS_TYPE":0,"CLASSIFICATION_TYPE":"U","NORAD_CAT_ID":55919,"ELEMENT_SET_NO":999,"REV_AT_EPOCH":14156,"BSTAR":9.5800121e-5,"MEAN_MOTION_DOT":1.05e-5,"MEAN_MOTION_DDOT":0},{"OBJECT_NAME":"STARLINK-5862","OBJECT_ID":"2023-037G","EPOCH":"2025-10-14T06:34:14.232576","MEAN_MOTION":14.98329549,"ECCENTRICITY":0.00031389,"INCLINATION":69.9973,"RA_OF_ASC_NODE":293.8179,"ARG_OF_PERICENTER":269.6519,"MEAN_ANOMALY":90.428,"EPHEMERIS_TYPE":0,"CLASSIFICATION_TYPE":"U","NORAD_CAT_ID":55920,"ELEMENT_SET_NO":999,"REV_AT_EPOCH":14204,"BSTAR":8.094442e-6,"MEAN_MOTION_DOT":4.0e-8,"MEAN_MOTION_DDOT":0},{"OBJECT_NAME":"STARLINK-5861","OBJECT_ID":"2023-037H","EPOCH":"2025-10-14T07:40:38.438112","MEAN_MOTION":14.98331214,"ECCENTRICITY":0.00030457,"INCLINATION":69.9984,"RA_OF_ASC_NODE":313.4565,"ARG_OF_PERICENTER":271.2352,"MEAN_ANOMALY":88.8458,"EPHEMERIS_TYPE":0,"CLASSIFICATION_TYPE":"U","NORAD_CAT_ID":55921,"ELEMENT_SET_NO":999,"REV_AT_EPOCH":14156,"BSTAR":-4.2946017e-5,"MEAN_MOTION_DOT":-6.05e-6,"MEAN_MOTION_DDOT":0},{"OBJECT_NAME":"STARLINK-5863","OBJECT_ID":"2023-037J","EPOCH":"2025-10-14T07:46:37.994304","MEAN_MOTION":14.98344445,"ECCENTRICITY":0.00030584,"INCLINATION":69.9986,"RA_OF_ASC_NODE":313.4721,"ARG_OF_PERICENTER":267.0454,"MEAN_ANOMALY":93.0355,"EPHEMERIS_TYPE":0,"CLASSIFICATION_TYPE":"U","NORAD_CAT_ID":55922,"ELEMENT_SET_NO":999,"REV_AT_EPOCH":14156,"BSTAR":8.1335305e-5,"MEAN_MOTION_DOT":8.78e-6,"MEAN_MOTION_DDOT":0},{"OBJECT_NAME":"STARLINK-5854","OBJECT_ID":"2023-037K","EPOCH":"2025-10-14T07:52:40.476000","MEAN_MOTION":14.983215,"ECCENTRICITY":0.00032746,"INCLINATION":69.9982,"RA_OF_ASC_NODE":313.4856,"ARG_OF_PERICENTER":266.8226,"MEAN_ANOMALY":93.2559,"EPHEMERIS_TYPE":0,"CLASSIFICATION_TYPE":"U","NORAD_CAT_ID":55923,"ELEMENT_SET_NO":999,"REV_AT_EPOCH":14156,"BSTAR":0.00010179818,"MEAN_MOTION_DOT":1.122e-5,"MEAN_MOTION_DDOT":0},{"OBJECT_NAME":"STARLINK-5849","OBJECT_ID":"2023-037L","EPOCH":"2025-10-14T06:28:13.601568","MEAN_MOTION":14.98328424,"ECCENTRICITY":0.00033289,"INCLINATION":69.9972,"RA_OF_ASC_NODE":293.8014,"ARG_OF_PERICENTER":272.4513,"MEAN_ANOMALY":87.6265,"EPHEMERIS_TYPE":0,"CLASSIFICATION_TYPE":"U","NORAD_CAT_ID":55924,"ELEMENT_SET_NO":999,"REV_AT_EPOCH":14204,"BSTAR":1.4299449e-5,"MEAN_MOTION_DOT":7.8e-7,"MEAN_MOTION_DDOT":0},{"OBJECT_NAME":"STARLINK-5922","OBJECT_ID":"2023-037M","EPOCH":"2025-10-14T07:34:37.898688","MEAN_MOTION":14.98322826,"ECCENTRICITY":0.000348,"INCLINATION":69.9993,"RA_OF_ASC_NODE":313.4415,"ARG_OF_PERICENTER":267.9082,"MEAN_ANOMALY":92.1678,"EPHEMERIS_TYPE":0,"CLASSIFICATION_TYPE":"U","NORAD_CAT_ID":55925,"ELEMENT_SET_NO":999,"REV_AT_EPOCH":14156,"BSTAR":0.00027004636,"MEAN_MOTION_DOT":3.13e-5,"MEAN_MOTION_DDOT":0},{"OBJECT_NAME":"STARLINK-5921","OBJECT_ID":"2023-037N","EPOCH":"2025-10-14T06:16:12.471744","MEAN_MOTION":14.9833172,"ECCENTRICITY":0.00032071,"INCLINATION":69.9972,"RA_OF_ASC_NODE":293.7742,"ARG_OF_PERICENTER":269.2652,"MEAN_ANOMALY":90.814,"EPHEMERIS_TYPE":0,"CLASSIFICATION_TYPE":"U","NORAD_CAT_ID":55926,"ELEMENT_SET_NO":999,"REV_AT_EPOCH":14204,"BSTAR":-5.4324201e-5,"MEAN_MOTION_DOT":-7.41e-6,"MEAN_MOTION_DDOT":0},{"OBJECT_NAME":"STARLINK-5919","OBJECT_ID":"2023-037P","EPOCH":"2025-10-14T07:22:50.599776","MEAN_MOTION":14.98330841,"ECCENTRICITY":0.00030339,"INCLINATION":69.9978,"RA_OF_ASC_NODE":313.4135,"ARG_OF_PERICENTER":270.849,"MEAN_ANOMALY":89.2322,"EPHEMERIS_TYPE":0,"CLASSIFICATION_TYPE":"U","NORAD_CAT_ID":55927,"ELEMENT_SET_NO":999,"REV_AT_EPOCH":14156,"BSTAR":-1.7708989e-5,"MEAN_MOTION_DOT":-3.04e-6,"MEAN_MOTION_DDOT":0},{"OBJECT_NAME":"STARLINK-5930","OBJECT_ID":"2023-037Q","EPOCH":"2025-10-14T07:16:35.702400","MEAN_MOTION":14.98331393,"ECCENTRICITY":0.00030872,"INCLINATION":69.9976,"RA_OF_ASC_NODE":313.397,"ARG_OF_PERICENTER":271.3311,"MEAN_ANOMALY":88.7494,"EPHEMERIS_TYPE":0,"CLASSIFICATION_TYPE":"U","NORAD_CAT_ID":55928,"ELEMENT_SET_NO":999,"REV_AT_EPOCH":14156,"BSTAR":-1.3454355e-5,"MEAN_MOTION_DOT":-2.54e-6,"MEAN_MOTION_DDOT":0}]
