STARLINK-5807           
1 55791U 23028BC  25287.21025032  .00000310  00000+0  33794-4 0  9994
2 55791  69.9999 213.8346 0002854 270.5891  89.4941 14.98332119145082
STARLINK-5856           
1 55914U 23037A   25287.28653036  .00001352  00000+0  12105-3 0  9998
2 55914  69.9978 313.7427 0003151 273.8340  86.2459 14.98338139142244
STARLINK-5859           
1 55915U 23037B   25287.33658649 -.00000004  00000+0  74971-5 0  9995
2 55915  69.9983 313.5151 0002971 268.8226  91.2593 14.98329155142253
STARLINK-5796           
1 55916U 23037C   25287.28235050  .00001047  00000+0  95516-4 0  9991
2 55916  69.9978 313.7275 0003043 269.0506  91.0304 14.98330154141553
STARLINK-5855           
1 55917U 23037D   25287.33335648  .00308123  00000+0  14120-2 0  9997
2 55917  69.9658 229.7475 0003719 257.4730  57.1197 15.82706897  6050
STARLINK-5867           
1 55918U 23037E   25287.27817641 -.00000102  00000+0 -76784-6 0  9995
2 55918  69.9981 313.7129 0003389 269.6061  90.4710 14.98325309141552
STARLINK-5871           
1 55919U 23037F   25287.33675069  .00001050  00000+0  95800-4 0  9998
2 55919  69.9983 313.5149 0003264 272.9908  87.0877 14.98328643141565
STARLINK-5862           
1 55920U 23037G   25287.27377584  .00000004  00000+0  80944-5 0  9996
2 55920  69.9973 293.8179 0003138 269.6519  90.4280 14.98329549142046
STARLINK-5861           
1 55921U 23037H   25287.31988933 -.00000605  00000+0 -42946-4 0  9996
2 55921  69.9984 313.4565 0003045 271.2352  88.8458 14.98331214141564
STARLINK-5863           
1 55922U 23037J   25287.32405086  .00000878  00000+0  81335-4 0  9996
2 55922  69.9986 313.4721 0003058 267.0454  93.0355 14.98344445141565
STARLINK-5854           
1 55923U 23037K   25287.32824625  .00001122  00000+0  10180-3 0  9993
2 55923  69.9982 313.4856 0003274 266.8226  93.2559 14.98321500141560
STARLINK-5849           
1 55924U 23037L   25287.26960187  .00000078  00000+0  14299-4 0  9996
2 55924  69.9972 293.8014 0003328 272.4513  87.6265 14.98328424142046
STARLINK-5922           
1 55925U 23037M   25287.31571642  .00003130  00000+0  27005-3 0  9997
2 55925  69.9993 313.4415 0003480 267.9082  92.1678 14.98322826141568
STARLINK-5921           
1 55926U 23037N   25287.26125546 -.00000741  00000+0 -54324-4 0  9992
2 55926  69.9972 293.7742 0003207 269.2652  90.8140 14.98331720142040
STARLINK-5919           
1 55927U 23037P   25287.30753009 -.00000304  00000+0 -17709-4 0  9990
2 55927  69.9978 313.4135 0003033 270.8490  89.2322 14.98330841141561
STARLINK-5930           
1 55928U 23037Q   25287.30319100 -.00000254  00000+0 -13454-4 0  9998
2 55928  69.9976 313.3970 0003087 271.3311  88.7494 14.98331393141560
